start=new Date('2022-10-15T00:00:00.000Z').valueOf();
sats=[{"COUNTRY_CODE":"US","EPHEMERIS_TYPE":"0","EPOCH":"2022-10-14T02:27:32.008320","TLE_LINE2":"2 47374  53.0557 239.8005 0001447  74.6350 285.4799 15.06395965 95759","OBJECT_NAME":"STARLINK-2093","REV_AT_EPOCH":"9575","MEAN_MOTION":"15.06395965","NORAD_CAT_ID":"47374","MEAN_MOTION_DOT":"0.00002526","ARG_OF_PERICENTER":"74.6350","INCLINATION":"53.0557","FILE":"3611991","MEAN_ANOMALY":"285.4799","OBJECT_ID":"2021-005AB","CLASSIFICATION_TYPE":"U","DECAY_DATE":null,"PERIOD":"95.592","ELEMENT_SET_NO":"999","MEAN_MOTION_DDOT":"0.0000000000000","SEMIMAJOR_AXIS":"6925.361","BSTAR":"0.00018841000000","CENTER_NAME":"EARTH","RCS_SIZE":"LARGE","TIME_SYSTEM":"UTC","APOAPSIS":"548.228","RA_OF_ASC_NODE":"239.8005","GP_ID":"215101582","SITE":"AFETR","OBJECT_TYPE":"PAYLOAD","ECCENTRICITY":"0.00014470","REF_FRAME":"TEME","PERIAPSIS":"546.224","TLE_LINE1":"1 47374U 21005AB  22287.10245380  .00002526  00000-0  18841-3 0  9997","LAUNCH_DATE":"2021-01-20","MEAN_ELEMENT_THEORY":"SGP4"},{"PERIAPSIS":"546.303","REF_FRAME":"TEME","MEAN_ELEMENT_THEORY":"SGP4","TLE_LINE1":"1 47375U 21005AC  22287.57151322  .00001317  00000-0  10732-3 0  9999","LAUNCH_DATE":"2021-01-20","BSTAR":"0.00010732000000","RCS_SIZE":"LARGE","TIME_SYSTEM":"UTC","CENTER_NAME":"EARTH","SITE":"AFETR","OBJECT_TYPE":"PAYLOAD","APOAPSIS":"548.137","RA_OF_ASC_NODE":"237.6997","GP_ID":"215142774","ECCENTRICITY":"0.00013240","MEAN_ANOMALY":"284.4405","OBJECT_ID":"2021-005AC","CLASSIFICATION_TYPE":"U","DECAY_DATE":null,"PERIOD":"95.592","SEMIMAJOR_AXIS":"6925.355","ELEMENT_SET_NO":"999","MEAN_MOTION_DDOT":"0.0000000000000","COUNTRY_CODE":"US","EPHEMERIS_TYPE":"0","EPOCH":"2022-10-14T13:42:58.742208","OBJECT_NAME":"STARLINK-2094","REV_AT_EPOCH":"9582","TLE_LINE2":"2 47375  53.0544 237.6997 0001324  75.6731 284.4405 15.06397968 95826","NORAD_CAT_ID":"47375","MEAN_MOTION":"15.06397968","ARG_OF_PERICENTER":"75.6731","INCLINATION":"53.0544","FILE":"3612869","MEAN_MOTION_DOT":"0.00001317"},{"MEAN_MOTION_DOT":"0.00002064","FILE":"3611991","ARG_OF_PERICENTER":"70.7503","INCLINATION":"53.0538","MEAN_MOTION":"15.06401009","NORAD_CAT_ID":"47376","TLE_LINE2":"2 47376  53.0538 238.5833 0001506  70.7503 289.3649 15.06401009 95796","OBJECT_NAME":"STARLINK-2096","REV_AT_EPOCH":"9579","EPOCH":"2022-10-14T09:01:39.743616","EPHEMERIS_TYPE":"0","COUNTRY_CODE":"US","ELEMENT_SET_NO":"999","MEAN_MOTION_DDOT":"0.0000000000000","SEMIMAJOR_AXIS":"6925.345","PERIOD":"95.592","DECAY_DATE":null,"CLASSIFICATION_TYPE":"U","OBJECT_ID":"2021-005AD","MEAN_ANOMALY":"289.3649","ECCENTRICITY":"0.00015060","RA_OF_ASC_NODE":"238.5833","GP_ID":"215100581","APOAPSIS":"548.253","OBJECT_TYPE":"PAYLOAD","SITE":"AFETR","CENTER_NAME":"EARTH","TIME_SYSTEM":"UTC","RCS_SIZE":"LARGE","BSTAR":"0.00015741000000","LAUNCH_DATE":"2021-01-20","TLE_LINE1":"1 47376U 21005AD  22287.37615444  .00002064  00000-0  15741-3 0  9993","MEAN_ELEMENT_THEORY":"SGP4","REF_FRAME":"TEME","PERIAPSIS":"546.168"},{"PERIAPSIS":"546.295","REF_FRAME":"TEME","MEAN_ELEMENT_THEORY":"SGP4","TLE_LINE1":"1 47377U 21005AE  22287.89218692  .00002012  00000-0  15395-3 0  9993","LAUNCH_DATE":"2021-01-20","RCS_SIZE":"LARGE","TIME_SYSTEM":"UTC","CENTER_NAME":"EARTH","BSTAR":"0.00015395000000","ECCENTRICITY":"0.00013290","SITE":"AFETR","OBJECT_TYPE":"PAYLOAD","APOAPSIS":"548.136","RA_OF_ASC_NODE":"236.2653","GP_ID":"215142273","CLASSIFICATION_TYPE":"U","MEAN_ANOMALY":"271.2575","OBJECT_ID":"2021-005AE","SEMIMAJOR_AXIS":"6925.350","ELEMENT_SET_NO":"999","MEAN_MOTION_DDOT":"0.0000000000000","DECAY_DATE":null,"PERIOD":"95.592","OBJECT_NAME":"STARLINK-2097","REV_AT_EPOCH":"9587","TLE_LINE2":"2 47377  53.0532 236.2653 0001329  88.8567 271.2575 15.06399434 95874","COUNTRY_CODE":"US","EPHEMERIS_TYPE":"0","EPOCH":"2022-10-14T21:24:44.949888","ARG_OF_PERICENTER":"88.8567","INCLINATION":"53.0532","FILE":"3612869","MEAN_MOTION_DOT":"0.00002012","NORAD_CAT_ID":"47377","MEAN_MOTION":"15.06399434"},{"PERIAPSIS":"546.282","REF_FRAME":"TEME","MEAN_ELEMENT_THEORY":"SGP4","TLE_LINE1":"1 47378U 21005AF  22287.48673570  .00008837  00000-0  61109-3 0  9994","LAUNCH_DATE":"2021-01-20","RCS_SIZE":"LARGE","TIME_SYSTEM":"UTC","CENTER_NAME":"EARTH","BSTAR":"0.00061109000000","ECCENTRICITY":"0.00012690","SITE":"AFETR","OBJECT_TYPE":"PAYLOAD","APOAPSIS":"548.039","RA_OF_ASC_NODE":"198.0959","GP_ID":"215101082","CLASSIFICATION_TYPE":"U","MEAN_ANOMALY":"261.0567","OBJECT_ID":"2021-005AF","SEMIMAJOR_AXIS":"6925.295","ELEMENT_SET_NO":"999","MEAN_MOTION_DDOT":"0.0000000000000","DECAY_DATE":null,"PERIOD":"95.591","REV_AT_EPOCH":"9637","OBJECT_NAME":"STARLINK-2098","TLE_LINE2":"2 47378  53.0519 198.0959 0001269  99.0566 261.0567 15.06417319 96377","COUNTRY_CODE":"US","EPOCH":"2022-10-14T11:40:53.964480","EPHEMERIS_TYPE":"0","INCLINATION":"53.0519","ARG_OF_PERICENTER":"99.0566","FILE":"3611991","MEAN_MOTION_DOT":"0.00008837","NORAD_CAT_ID":"47378","MEAN_MOTION":"15.06417319"},{"BSTAR":"0.00085299000000","TIME_SYSTEM":"UTC","RCS_SIZE":"LARGE","CENTER_NAME":"EARTH","OBJECT_TYPE":"PAYLOAD","SITE":"AFETR","GP_ID":"215143275","RA_OF_ASC_NODE":"196.2762","APOAPSIS":"548.308","ECCENTRICITY":"0.00017330","PERIAPSIS":"545.908","REF_FRAME":"TEME","MEAN_ELEMENT_THEORY":"SGP4","LAUNCH_DATE":"2021-01-20","TLE_LINE1":"1 47379U 21005AG  22287.89217548  .00012458  00000-0  85299-3 0  9999","EPHEMERIS_TYPE":"0","EPOCH":"2022-10-14T21:24:43.961472","COUNTRY_CODE":"US","REV_AT_EPOCH":"9643","OBJECT_NAME":"STARLINK-2099","TLE_LINE2":"2 47379  53.0534 196.2762 0001733 125.8532 234.2618 15.06434335 96437","NORAD_CAT_ID":"47379","MEAN_MOTION":"15.06434335","FILE":"3612869","ARG_OF_PERICENTER":"125.8532","INCLINATION":"53.0534","MEAN_MOTION_DOT":"0.00012458","MEAN_ANOMALY":"234.2618","OBJECT_ID":"2021-005AG","CLASSIFICATION_TYPE":"U","PERIOD":"95.590","DECAY_DATE":null,"SEMIMAJOR_AXIS":"6925.243","MEAN_MOTION_DDOT":"0.0000000000000","ELEMENT_SET_NO":"999"},{"CLASSIFICATION_TYPE":"U","OBJECT_ID":"2021-005AH","MEAN_ANOMALY":"265.9765","ELEMENT_SET_NO":"999","MEAN_MOTION_DDOT":"0.0000000000000","SEMIMAJOR_AXIS":"6925.366","PERIOD":"95.592","DECAY_DATE":null,"TLE_LINE2":"2 47380  53.0563 210.0045 0001497  94.1395 265.9765 15.06394335 96172","REV_AT_EPOCH":"9617","OBJECT_NAME":"STARLINK-2100","EPOCH":"2022-10-14T01:23:52.881216","EPHEMERIS_TYPE":"0","COUNTRY_CODE":"US","MEAN_MOTION_DOT":"0.00001842","FILE":"3611991","ARG_OF_PERICENTER":"94.1395","INCLINATION":"53.0563","MEAN_MOTION":"15.06394335","NORAD_CAT_ID":"47380","REF_FRAME":"TEME","PERIAPSIS":"546.194","LAUNCH_DATE":"2021-01-20","TLE_LINE1":"1 47380U 21005AH  22287.05825094  .00001842  00000-0  14253-3 0  9997","MEAN_ELEMENT_THEORY":"SGP4","CENTER_NAME":"EARTH","TIME_SYSTEM":"UTC","RCS_SIZE":"LARGE","BSTAR":"0.00014253000000","ECCENTRICITY":"0.00014970","GP_ID":"215100081","RA_OF_ASC_NODE":"210.0045","APOAPSIS":"548.268","OBJECT_TYPE":"PAYLOAD","SITE":"AFETR"},{"DECAY_DATE":null,"PERIOD":"95.592","SEMIMAJOR_AXIS":"6925.338","ELEMENT_SET_NO":"999","MEAN_MOTION_DDOT":"0.0000000000000","OBJECT_ID":"2021-005AJ","MEAN_ANOMALY":"272.5527","CLASSIFICATION_TYPE":"U","NORAD_CAT_ID":"47381","MEAN_MOTION":"15.06403303","INCLINATION":"53.0534","ARG_OF_PERICENTER":"87.5612","FILE":"3612869","MEAN_MOTION_DOT":"0.00003158","COUNTRY_CODE":"US","EPHEMERIS_TYPE":"0","EPOCH":"2022-10-14T17:42:30.241728","OBJECT_NAME":"STARLINK-2101","REV_AT_EPOCH":"9620","TLE_LINE2":"2 47381  53.0534 212.0370 0001303  87.5612 272.5527 15.06403303 96208","MEAN_ELEMENT_THEORY":"SGP4","TLE_LINE1":"1 47381U 21005AJ  22287.73785002  .00003158  00000-0  23078-3 0  9994","LAUNCH_DATE":"2021-01-20","PERIAPSIS":"546.301","REF_FRAME":"TEME","SITE":"AFETR","OBJECT_TYPE":"PAYLOAD","APOAPSIS":"548.106","RA_OF_ASC_NODE":"212.0370","GP_ID":"215141773","ECCENTRICITY":"0.00013030","BSTAR":"0.00023078000000","RCS_SIZE":"LARGE","TIME_SYSTEM":"UTC","CENTER_NAME":"EARTH"},{"CENTER_NAME":"EARTH","TIME_SYSTEM":"UTC","RCS_SIZE":"LARGE","BSTAR":"0.00015251000000","ECCENTRICITY":"0.00013330","RA_OF_ASC_NODE":"210.0486","GP_ID":"215101583","APOAPSIS":"548.132","OBJECT_TYPE":"PAYLOAD","SITE":"AFETR","REF_FRAME":"TEME","PERIAPSIS":"546.286","LAUNCH_DATE":"2021-01-20","TLE_LINE1":"1 47382U 21005AK  22287.05087406  .00001991  00000-0  15251-3 0  9990","MEAN_ELEMENT_THEORY":"SGP4","TLE_LINE2":"2 47382  53.0541 210.0486 0001333 100.2944 259.8195 15.06401574 96169","OBJECT_NAME":"STARLINK-2102","REV_AT_EPOCH":"9616","EPOCH":"2022-10-14T01:13:15.518784","EPHEMERIS_TYPE":"0","COUNTRY_CODE":"US","MEAN_MOTION_DOT":"0.00001991","FILE":"3611991","ARG_OF_PERICENTER":"100.2944","INCLINATION":"53.0541","MEAN_MOTION":"15.06401574","NORAD_CAT_ID":"47382","CLASSIFICATION_TYPE":"U","OBJECT_ID":"2021-005AK","MEAN_ANOMALY":"259.8195","MEAN_MOTION_DDOT":"0.0000000000000","ELEMENT_SET_NO":"999","SEMIMAJOR_AXIS":"6925.344","PERIOD":"95.592","DECAY_DATE":null},{"SITE":"AFETR","OBJECT_TYPE":"PAYLOAD","APOAPSIS":"548.278","RA_OF_ASC_NODE":"196.3875","GP_ID":"215142775","ECCENTRICITY":"0.00015830","BSTAR":"0.00039294000000","RCS_SIZE":"LARGE","TIME_SYSTEM":"UTC","CENTER_NAME":"EARTH","MEAN_ELEMENT_THEORY":"SGP4","TLE_LINE1":"1 47383U 21005AL  22287.86545109  .00005578  00000-0  39294-3 0  9997","LAUNCH_DATE":"2021-01-20","PERIAPSIS":"546.085","REF_FRAME":"TEME","NORAD_CAT_ID":"47383","MEAN_MOTION":"15.06410455","INCLINATION":"53.0535","ARG_OF_PERICENTER":"96.5381","FILE":"3612869","MEAN_MOTION_DOT":"0.00005578","COUNTRY_CODE":"US","EPOCH":"2022-10-14T20:46:14.974176","EPHEMERIS_TYPE":"0","OBJECT_NAME":"STARLINK-2103","REV_AT_EPOCH":"9643","TLE_LINE2":"2 47383  53.0535 196.3875 0001583  96.5381 263.5789 15.06410455 96439","DECAY_DATE":null,"PERIOD":"95.591","SEMIMAJOR_AXIS":"6925.317","ELEMENT_SET_NO":"999","MEAN_MOTION_DDOT":"0.0000000000000","OBJECT_ID":"2021-005AL","MEAN_ANOMALY":"263.5789","CLASSIFICATION_TYPE":"U"}];
